{"type":"FeatureCollection","features":[{"type":"Feature","properties":{"barrio":"CENTRO HISTORICO","territorio":"CENTRO ORIENTE","valor":4.2},"geometry":{"type":"Polygon","coordinates":[[[-70.659,-33.443],[-70.649,-33.443],[-70.649,-33.451],[-70.659,-33.451],[-70.659,-33.443]]]}},{"type":"Feature","properties":{"barrio":"STA LUCIA FORESTAL","territorio":"CENTRO ORIENTE","valor":7.9},"geometry":{"type":"Polygon","coordinates":[[[-70.649,-33.439],[-70.639,-33.439],[-70.639,-33.449],[-70.649,-33.449],[-70.649,-33.439]]]}},{"type":"Feature","properties":{"barrio":"VIEL","territorio":"SUR PONIENTE","valor":3.1},"geometry":{"type":"Polygon","coordinates":[[[-70.672,-33.456],[-70.658,-33.456],[-70.658,-33.466],[-70.672,-33.466],[-70.672,-33.456]]]}},{"type":"Feature","properties":{"barrio":"PARQUE O'HIGGINS","territorio":"SUR PONIENTE","valor":18.7},"geometry":{"type":"Polygon","coordinates":[[[-70.668,-33.463],[-70.65,-33.463],[-70.65,-33.477],[-70.668,-33.477],[-70.668,-33.463]]]}},{"type":"Feature","properties":{"barrio":"BARRIO UNIVERSITARIO","territorio":"CENTRO PONIENTE","valor":2.4},"geometry":{"type":"Polygon","coordinates":[[[-70.672,-33.447],[-70.659,-33.447],[-70.659,-33.456],[-70.672,-33.456],[-70.672,-33.447]]]}}]}
