{"type":"FeatureCollection","features":[{"type":"Feature","properties":{"CUT_REG":"13","CUT_PROV":"131","CUT_COM":"13101","PROVINCIA":"Santiago","COMUNA":"Santiago","SUPERFICIE":23.18},"geometry":{"type":"Polygon","coordinates":[[[-70.67174,-33.47589],[-70.67208,-33.47574],[-70.67244,-33.47562],[-70.6726,-33.4755],[-70.67275,-33.47525],[-70.67285,-33.47503],[-70.67288,-33.47488],[-70.67292,-33.47392],[-70.67291,-33.47273],[-70.67291,-33.47267],[-70.67292,-33.47184],[-70.67294,-33.47063],[-70.67513,-33.47065],[-70.67747,-33.47068],[-70.67985,-33.4707],[-70.67989,-33.47066],[-70.67991,-33.47062],[-70.67991,-33.47055],[-70.67987,-33.47049],[-70.67982,-33.47042],[-70.67976,-33.47034],[-70.6797,-33.47025],[-70.67965,-33.47018],[-70.67959,-33.47009],[-70.67954,-33.47002],[-70.67948,-33.46994],[-70.67943,-33.46986],[-70.67937,-33.46978],[-70.67932,-33.46971],[-70.67926,-33.46962],[-70.67921,-33.46955],[-70.67915,-33.46946],[-70.6791,-33.46939],[-70.67905,-33.46931],[-70.679,-33.46923],[-70.67896,-33.46917],[-70.67894,-33.46911],[-70.67893,-33.46902],[-70.67892,-33.46891],[-70.67891,-33.46879],[-70.6789,-33.46868],[-70.67889,-33.46856],[-70.67888,-33.46844],[-70.67887,-33.46832],[-70.67886,-33.4682],[-70.67885,-33.46808],[-70.67884,-33.46796],[-70.67883,-33.46784],[-70.67882,-33.46772],[-70.67881,-33.4676],[-70.6788,-33.46748],[-70.67879,-33.46736],[-70.67878,-33.46724],[-70.67877,-33.46712],[-70.67876,-33.467],[-70.67875,-33.46688],[-70.67874,-33.46676],[-70.67873,-33.46664],[-70.67872,-33.46652],[-70.67871,-33.4664],[-70.6787,-33.46628],[-70.67869,-33.46616],[-70.67868,-33.46604],[-70.67867,-33.46592],[-70.67866,-33.4658],[-70.67865,-33.46568],[-70.67864,-33.46556],[-70.67863,-33.46544],[-70.67862,-33.46532],[-70.67861,-33.4652],[-70.6786,-33.46508],[-70.67859,-33.46496],[-70.67858,-33.46484],[-70.67857,-33.46472],[-70.67856,-33.4646],[-70.67855,-33.46448],[-70.67854,-33.46436],[-70.67853,-33.46424],[-70.67852,-33.46412],[-70.67851,-33.464],[-70.6785,-33.46388],[-70.67849,-33.46376],[-70.67848,-33.46364],[-70.67847,-33.46352],[-70.67846,-33.4634],[-70.67845,-33.46328],[-70.67844,-33.46316],[-70.67843,-33.46304],[-70.67842,-33.46292],[-70.67841,-33.4628],[-70.6784,-33.46268],[-70.67839,-33.46256],[-70.67838,-33.46244],[-70.67837,-33.46232],[-70.67836,-33.4622],[-70.67835,-33.46208],[-70.67834,-33.46196],[-70.67833,-33.46184],[-70.67832,-33.46172],[-70.67831,-33.4616],[-70.6783,-33.46148],[-70.67829,-33.46136],[-70.67828,-33.46124],[-70.67827,-33.46112],[-70.67826,-33.461],[-70.67825,-33.46088],[-70.67824,-33.46076],[-70.67823,-33.46064],[-70.67822,-33.46052],[-70.67821,-33.4604],[-70.6782,-33.46028],[-70.67819,-33.46016],[-70.67818,-33.46004],[-70.67817,-33.45992],[-70.67816,-33.4598],[-70.67815,-33.45968],[-70.67814,-33.45956],[-70.67813,-33.45944],[-70.67812,-33.45932],[-70.67811,-33.4592],[-70.6781,-33.45908],[-70.67809,-33.45896],[-70.67808,-33.45884],[-70.67807,-33.45872],[-70.67806,-33.4586],[-70.67805,-33.45848],[-70.67804,-33.45836],[-70.67803,-33.45824],[-70.67802,-33.45812],[-70.67798,-33.4576],[-70.67794,-33.45709],[-70.6779,-33.45657],[-70.67786,-33.45606],[-70.67782,-33.45554],[-70.67778,-33.45503],[-70.67774,-33.45451],[-70.6777,-33.454],[-70.67766,-33.45348],[-70.67762,-33.45297],[-70.67758,-33.45245],[-70.67754,-33.45194],[-70.6775,-33.45142],[-70.67746,-33.45091],[-70.67742,-33.45039],[-70.67902,-33.45073],[-70.67958,-33.44386],[-70.69233,-33.44453],[-70.69189,-33.43926],[-70.68324,-33.43864],[-70.68346,-33.43645],[-70.68089,-33.43601],[-70.68078,-33.43728],[-70.68132,-33.43733],[-70.68131,-33.43746],[-70.6819,-33.43745],[-70.68187,-33.43794],[-70.68176,-33.43794],[-70.68172,-33.43855],[-70.68006,-33.43843],[-70.68074,-33.42985],[-70.68071,-33.42938],[-70.68048,-33.42869],[-70.67994,-33.42795],[-70.67936,-33.42746],[-70.67821,-33.42697],[-70.67778,-33.42688],[-70.67703,-33.42682],[-70.67637,-33.42685],[-70.67551,-33.42707],[-70.67182,-33.42828],[-70.67157,-33.42569],[-70.67104,-33.42608],[-70.67031,-33.42648],[-70.6631,-33.42898],[-70.66255,-33.42909],[-70.66122,-33.4292],[-70.6605,-33.42954],[-70.6594,-33.43009],[-70.63539,-33.43569],[-70.63536,-33.43651],[-70.63519,-33.43712],[-70.63407,-33.44126],[-70.62983,-33.45548],[-70.62599,-33.46881],[-70.62567,-33.46921],[-70.62507,-33.46957],[-70.62581,-33.47076],[-70.6267,-33.47158],[-70.62734,-33.47191],[-70.63855,-33.47591],[-70.64033,-33.47636],[-70.6482,-33.47677],[-70.65488,-33.47654],[-70.66177,-33.47591],[-70.67159,-33.47613],[-70.67159,-33.47686],[-70.67159,-33.47852],[-70.67368,-33.47851],[-70.67534,-33.47848],[-70.67709,-33.47846],[-70.67879,-33.47844],[-70.68081,-33.47841],[-70.6807,-33.47684],[-70.68068,-33.47651],[-70.67994,-33.47651],[-70.67893,-33.47651],[-70.67799,-33.47658],[-70.67737,-33.47663],[-70.67625,-33.47667],[-70.6756,-33.47666],[-70.67454,-33.47655],[-70.67377,-33.47645],[-70.67291,-33.47647],[-70.67234,-33.47644],[-70.67184,-33.47627],[-70.67173,-33.47625],[-70.67174,-33.47589]]]}}]}