{"type":"FeatureCollection","features":[{"type":"Feature","properties":{"OBJECTID":1,"BARRIO":"SAN VICENTE","ÁREA":30.0},"geometry":{"type":"Polygon","coordinates":[[[-70.67214,-33.45839],[-70.67152,-33.46351],[-70.67157,-33.46622],[-70.67173,-33.46639],[-70.67164,-33.46653],[-70.67182,-33.46645],[-70.67301,-33.46646],[-70.67897,-33.46667],[-70.67836,-33.45822],[-70.67811,-33.45817],[-70.67626,-33.45854],[-70.67615,-33.45864],[-70.67607,-33.45854],[-70.67497,-33.45849],[-70.67486,-33.45857],[-70.67478,-33.45847],[-70.67371,-33.45841],[-70.6736,-33.4585],[-70.67351,-33.4584],[-70.67235,-33.45833],[-70.67214,-33.45839]]]}},{"type":"Feature","properties":{"OBJECTID":2,"BARRIO":"SAN EUGENIO","ÁREA":12.0},"geometry":{"type":"MultiPolygon","coordinates":[[[[-70.67158,-33.47677],[-70.67159,-33.47847],[-70.6808,-33.47836],[-70.6807,-33.47688],[-70.6782,-33.47683],[-70.67585,-33.47688],[-70.67355,-33.47668],[-70.67158,-33.47677]]],[[[-70.67157,-33.47665],[-70.67157,-33.47666],[-70.67158,-33.47659],[-70.67157,-33.47665]]]]}},{"type":"Feature","properties":{"OBJECTID":3,"BARRIO":"SAN EUGENIO","ÁREA":12.0},"geometry":{"type":"Polygon","coordinates":[[[-70.67897,-33.46667],[-70.67182,-33.46645],[-70.67145,-33.46659],[-70.67106,-33.46709],[-70.67082,-33.46718],[-70.66982,-33.46832],[-70.66778,-33.47041],[-70.66771,-33.47059],[-70.66345,-33.47046],[-70.66306,-33.47034],[-70.6622,-33.47036],[-70.66209,-33.47029],[-70.65986,-33.47016],[-70.65965,-33.47021],[-70.65945,-33.47331],[-70.65955,-33.47343],[-70.66121,-33.47352],[-70.66128,-33.47341],[-70.66132,-33.47353],[-70.66324,-33.47363],[-70.6633,-33.47354],[-70.66339,-33.47365],[-70.66476,-33.47372],[-70.66487,-33.47362],[-70.6648,-33.47377],[-70.66481,-33.47571],[-70.67159,-33.47583],[-70.67158,-33.47659],[-70.67176,-33.4759],[-70.67257,-33.47552],[-70.67278,-33.47517],[-70.67289,-33.47478],[-70.67294,-33.47063],[-70.67979,-33.47068],[-70.67986,-33.47062],[-70.67913,-33.46934],[-70.67897,-33.46667]]]}},{"type":"Feature","properties":{"OBJECTID":4,"BARRIO":"RONDIZZONI","ÁREA":8.0},"geometry":{"type":"Polygon","coordinates":[[[-70.66478,-33.47593],[-70.6648,-33.47377],[-70.66487,-33.47362],[-70.66476,-33.47372],[-70.66339,-33.47365],[-70.6633,-33.47354],[-70.66324,-33.47363],[-70.66132,-33.47353],[-70.66128,-33.47341],[-70.66121,-33.47352],[-70.65955,-33.47343],[-70.65945,-33.47331],[-70.65963,-33.47032],[-70.65965,-33.47021],[-70.65986,-33.47016],[-70.65965,-33.47021],[-70.65946,-33.47013],[-70.65626,-33.47],[-70.65611,-33.47115],[-70.65479,-33.47296],[-70.6543,-33.47421],[-70.6543,-33.47525],[-70.65473,-33.4765],[-70.65511,-33.47646],[-70.65507,-33.47635],[-70.65528,-33.47645],[-70.66478,-33.47593]]]}},{"type":"Feature","properties":{"OBJECTID":5,"BARRIO":"YUNGAY","ÁREA":33.0},"geometry":{"type":"Polygon","coordinates":[[[-70.6796,-33.44385],[-70.69187,-33.44448],[-70.69154,-33.44043],[-70.69163,-33.43925],[-70.68012,-33.43844],[-70.68026,-33.43609],[-70.68034,-33.43592],[-70.68059,-33.43306],[-70.67643,-33.43261],[-70.66921,-33.43212],[-70.66885,-33.43658],[-70.66878,-33.43664],[-70.66877,-33.43755],[-70.6687,-33.43765],[-70.66861,-33.4391],[-70.66855,-33.43916],[-70.6686,-33.43921],[-70.66856,-33.44023],[-70.66848,-33.44029],[-70.66852,-33.44035],[-70.66828,-33.4414],[-70.66821,-33.44146],[-70.66826,-33.44153],[-70.66797,-33.44255],[-70.66774,-33.44627],[-70.66767,-33.44636],[-70.6677,-33.44671],[-70.66764,-33.44674],[-70.6677,-33.4468],[-70.66767,-33.44719],[-70.66744,-33.44766],[-70.67902,-33.45073],[-70.6796,-33.44385]]]}},{"type":"Feature","properties":{"OBJECTID":6,"BARRIO":"MEIGGS","ÁREA":51.0},"geometry":{"type":"Polygon","coordinates":[[[-70.67258,-33.4494],[-70.67242,-33.45446],[-70.67218,-33.45759],[-70.67227,-33.45768],[-70.67217,-33.45774],[-70.67214,-33.45839],[-70.67235,-33.45833],[-70.67351,-33.4584],[-70.6736,-33.4585],[-70.67371,-33.45841],[-70.67478,-33.45847],[-70.67486,-33.45857],[-70.67497,-33.45849],[-70.67607,-33.45854],[-70.67615,-33.45864],[-70.67626,-33.45854],[-70.67811,-33.45817],[-70.67836,-33.45822],[-70.67783,-33.45141],[-70.67789,-33.45046],[-70.67297,-33.44913],[-70.67258,-33.4494]]]}},{"type":"Feature","properties":{"OBJECTID":7,"BARRIO":"CLUB HÍPICO","ÁREA":8.0},"geometry":{"type":"Polygon","coordinates":[[[-70.66345,-33.47046],[-70.66771,-33.47059],[-70.66778,-33.47041],[-70.66982,-33.46832],[-70.67082,-33.46718],[-70.67106,-33.46709],[-70.67145,-33.46659],[-70.6717,-33.46649],[-70.67171,-33.46635],[-70.67157,-33.46622],[-70.67152,-33.46351],[-70.67214,-33.45839],[-70.67199,-33.45846],[-70.6685,-33.45783],[-70.66834,-33.45771],[-70.66802,-33.45775],[-70.66658,-33.45749],[-70.66649,-33.45739],[-70.66638,-33.45746],[-70.66508,-33.45725],[-70.66494,-33.45713],[-70.66497,-33.45862],[-70.66405,-33.45856],[-70.66389,-33.45866],[-70.66345,-33.47046]]]}},{"type":"Feature","properties":{"OBJECTID":8,"BARRIO":"REPÚBLICA","ÁREA":24.0},"geometry":{"type":"Polygon","coordinates":[[[-70.67213,-33.45838],[-70.67217,-33.45774],[-70.67227,-33.45768],[-70.67218,-33.45759],[-70.67242,-33.45446],[-70.67258,-33.4494],[-70.67297,-33.44913],[-70.66467,-33.44689],[-70.6648,-33.44743],[-70.66473,-33.44741],[-70.66479,-33.44752],[-70.66468,-33.45036],[-70.66397,-33.45718],[-70.66393,-33.45847],[-70.66386,-33.4586],[-70.66497,-33.45862],[-70.66494,-33.45713],[-70.66508,-33.45725],[-70.66638,-33.45746],[-70.66649,-33.45739],[-70.66658,-33.45749],[-70.66802,-33.45775],[-70.66834,-33.45771],[-70.6685,-33.45783],[-70.67199,-33.45846],[-70.67213,-33.45838]]]}},{"type":"Feature","properties":{"OBJECTID":9,"BARRIO":"EJÉRCITO","ÁREA":16.0},"geometry":{"type":"Polygon","coordinates":[[[-70.65668,-33.45803],[-70.66377,-33.45858],[-70.66393,-33.45847],[-70.66397,-33.45718],[-70.66468,-33.45036],[-70.66479,-33.44752],[-70.66473,-33.44741],[-70.6648,-33.44743],[-70.66467,-33.44689],[-70.66066,-33.44594],[-70.6606,-33.44652],[-70.6598,-33.44867],[-70.65812,-33.45437],[-70.6569,-33.45628],[-70.6567,-33.4576],[-70.65668,-33.45803]]]}},{"type":"Feature","properties":{"OBJECTID":10,"BARRIO":"BRASIL","ÁREA":19.0},"geometry":{"type":"Polygon","coordinates":[[[-70.66742,-33.44765],[-70.66757,-33.4475],[-70.66767,-33.44719],[-70.6677,-33.4468],[-70.66764,-33.44674],[-70.6677,-33.44671],[-70.66767,-33.44636],[-70.66774,-33.44627],[-70.66797,-33.44255],[-70.66826,-33.44153],[-70.66821,-33.44146],[-70.66828,-33.4414],[-70.66852,-33.44035],[-70.66848,-33.44029],[-70.66856,-33.44023],[-70.6686,-33.43921],[-70.66855,-33.43916],[-70.66861,-33.4391],[-70.66866,-33.43802],[-70.66037,-33.43719],[-70.66009,-33.43943],[-70.6601,-33.43992],[-70.66042,-33.44178],[-70.661,-33.44421],[-70.66066,-33.44594],[-70.66563,-33.44712],[-70.66742,-33.44765]]]}},{"type":"Feature","properties":{"OBJECTID":11,"BARRIO":"MATTA NORTE","ÁREA":31.0},"geometry":{"type":"Polygon","coordinates":[[[-70.65682,-33.46056],[-70.65667,-33.45828],[-70.65676,-33.45695],[-70.65692,-33.45618],[-70.65803,-33.45455],[-70.65147,-33.45438],[-70.65004,-33.45413],[-70.65057,-33.45051],[-70.64915,-33.45024],[-70.64458,-33.44962],[-70.64328,-33.45814],[-70.64327,-33.45835],[-70.64336,-33.45847],[-70.64519,-33.45886],[-70.64532,-33.45877],[-70.64542,-33.45891],[-70.64605,-33.45903],[-70.6462,-33.45894],[-70.64628,-33.45907],[-70.64712,-33.45925],[-70.64727,-33.45917],[-70.64737,-33.4593],[-70.64897,-33.45964],[-70.64913,-33.45958],[-70.64922,-33.45968],[-70.65058,-33.45984],[-70.65069,-33.45976],[-70.65079,-33.45986],[-70.65158,-33.45996],[-70.65168,-33.45988],[-70.65175,-33.45998],[-70.65245,-33.46005],[-70.65253,-33.45999],[-70.6526,-33.46009],[-70.6533,-33.46016],[-70.65338,-33.46008],[-70.65345,-33.46018],[-70.65425,-33.46026],[-70.65434,-33.4602],[-70.65441,-33.46029],[-70.65533,-33.46039],[-70.65543,-33.46032],[-70.65552,-33.46042],[-70.65634,-33.46051],[-70.65643,-33.46044],[-70.65654,-33.46055],[-70.65682,-33.46056]]]}},{"type":"Feature","properties":{"OBJECTID":12,"BARRIO":"BALMACEDA","ÁREA":25.0},"geometry":{"type":"Polygon","coordinates":[[[-70.66849,-33.42703],[-70.66954,-33.42918],[-70.66945,-33.42946],[-70.66948,-33.42989],[-70.66941,-33.42999],[-70.66946,-33.43008],[-70.6694,-33.43066],[-70.66933,-33.43069],[-70.66938,-33.43095],[-70.6693,-33.43103],[-70.66921,-33.43212],[-70.67643,-33.43261],[-70.68059,-33.43306],[-70.68054,-33.43256],[-70.68072,-33.42979],[-70.6806,-33.42901],[-70.68014,-33.42819],[-70.67978,-33.42778],[-70.67931,-33.42741],[-70.67766,-33.42669],[-70.67689,-33.4266],[-70.67177,-33.42832],[-70.67174,-33.42759],[-70.6713,-33.42608],[-70.6705,-33.4263],[-70.66849,-33.42703]]]}},{"type":"Feature","properties":{"OBJECTID":13,"BARRIO":"PANAMÁ","ÁREA":27.0},"geometry":{"type":"Polygon","coordinates":[[[-70.66037,-33.43719],[-70.66866,-33.43802],[-70.669,-33.43498],[-70.66894,-33.43493],[-70.66901,-33.43486],[-70.6693,-33.43103],[-70.66938,-33.43095],[-70.66933,-33.43069],[-70.6694,-33.43066],[-70.66946,-33.43008],[-70.66941,-33.42999],[-70.66949,-33.42978],[-70.66943,-33.42971],[-70.66951,-33.42953],[-70.66945,-33.42946],[-70.66954,-33.42918],[-70.66848,-33.42703],[-70.66422,-33.42866],[-70.66282,-33.42893],[-70.66217,-33.42963],[-70.66159,-33.43078],[-70.6619,-33.43092],[-70.66202,-33.43131],[-70.66184,-33.43154],[-70.66134,-33.43171],[-70.66129,-33.43207],[-70.66114,-33.43233],[-70.66037,-33.43719]]]}},{"type":"Feature","properties":{"OBJECTID":14,"BARRIO":"DIEZ DE JULIO","ÁREA":28.0},"geometry":{"type":"Polygon","coordinates":[[[-70.64315,-33.4584],[-70.64327,-33.45835],[-70.64398,-33.4533],[-70.64076,-33.45272],[-70.6377,-33.45207],[-70.63457,-33.45158],[-70.63427,-33.45165],[-70.63251,-33.45164],[-70.63098,-33.45191],[-70.62986,-33.4556],[-70.63116,-33.45588],[-70.63129,-33.4558],[-70.63137,-33.45592],[-70.63203,-33.45606],[-70.63213,-33.45599],[-70.63218,-33.45609],[-70.63271,-33.45622],[-70.63314,-33.45629],[-70.63327,-33.45622],[-70.63337,-33.45635],[-70.63422,-33.45652],[-70.63433,-33.45645],[-70.6344,-33.45658],[-70.6357,-33.45685],[-70.63582,-33.45675],[-70.63588,-33.45688],[-70.63681,-33.45707],[-70.63694,-33.45701],[-70.63706,-33.45712],[-70.63941,-33.45763],[-70.63953,-33.45754],[-70.63964,-33.45768],[-70.64076,-33.45792],[-70.64089,-33.45783],[-70.64092,-33.45795],[-70.64198,-33.45818],[-70.6421,-33.45808],[-70.64218,-33.4582],[-70.64315,-33.4584]]]}},{"type":"Feature","properties":{"OBJECTID":15,"BARRIO":"SANTA ISABEL","ÁREA":23.0},"geometry":{"type":"Polygon","coordinates":[[[-70.64398,-33.4533],[-70.64485,-33.44805],[-70.64369,-33.4478],[-70.64379,-33.44735],[-70.64241,-33.44695],[-70.64252,-33.44649],[-70.63654,-33.44517],[-70.63782,-33.44302],[-70.63394,-33.4419],[-70.63098,-33.45191],[-70.63251,-33.45164],[-70.63427,-33.45165],[-70.63457,-33.45158],[-70.6377,-33.45207],[-70.64076,-33.45272],[-70.64398,-33.4533]]]}},{"type":"Feature","properties":{"OBJECTID":16,"BARRIO":"SAN BORJA","ÁREA":25.0},"geometry":{"type":"Polygon","coordinates":[[[-70.64485,-33.44805],[-70.64602,-33.44339],[-70.64621,-33.44293],[-70.64421,-33.44237],[-70.64302,-33.44192],[-70.64042,-33.44021],[-70.63807,-33.43854],[-70.63808,-33.43846],[-70.63797,-33.43848],[-70.63653,-33.43765],[-70.63653,-33.43756],[-70.6364,-33.43762],[-70.63523,-33.4373],[-70.63394,-33.4419],[-70.63782,-33.44302],[-70.63654,-33.44517],[-70.64252,-33.44649],[-70.64241,-33.44695],[-70.64379,-33.44735],[-70.64369,-33.4478],[-70.64485,-33.44805]]]}},{"type":"Feature","properties":{"OBJECTID":17,"BARRIO":"PARQUE ALMAGRO","ÁREA":32.0},"geometry":{"type":"Polygon","coordinates":[[[-70.64623,-33.44292],[-70.64602,-33.44339],[-70.64486,-33.44798],[-70.64458,-33.44962],[-70.64915,-33.45024],[-70.65057,-33.45051],[-70.65004,-33.45413],[-70.65147,-33.45438],[-70.65803,-33.45455],[-70.65982,-33.44863],[-70.6606,-33.44652],[-70.65843,-33.44603],[-70.65414,-33.44492],[-70.65407,-33.44495],[-70.65403,-33.44489],[-70.64805,-33.44328],[-70.64623,-33.44292]]]}},{"type":"Feature","properties":{"OBJECTID":18,"BARRIO":"HUEMUL","ÁREA":20.0},"geometry":{"type":"Polygon","coordinates":[[[-70.65479,-33.47296],[-70.65604,-33.47128],[-70.65617,-33.47097],[-70.65626,-33.47],[-70.65609,-33.46999],[-70.65574,-33.4702],[-70.655,-33.47047],[-70.64854,-33.46979],[-70.64835,-33.47324],[-70.64845,-33.4733],[-70.64835,-33.47335],[-70.64822,-33.4756],[-70.64832,-33.47574],[-70.64829,-33.47671],[-70.65404,-33.47653],[-70.65467,-33.47635],[-70.65432,-33.47532],[-70.6543,-33.47421],[-70.65479,-33.47296]]]}},{"type":"Feature","properties":{"OBJECTID":19,"BARRIO":"FRANKLIN","ÁREA":37.0},"geometry":{"type":"Polygon","coordinates":[[[-70.6485,-33.46978],[-70.64227,-33.46912],[-70.64197,-33.47637],[-70.64639,-33.47657],[-70.64641,-33.47645],[-70.64818,-33.4765],[-70.64815,-33.47671],[-70.6483,-33.4767],[-70.64832,-33.47574],[-70.64822,-33.4756],[-70.64835,-33.47335],[-70.64845,-33.4733],[-70.64835,-33.47324],[-70.6485,-33.46978]]]}},{"type":"Feature","properties":{"OBJECTID":20,"BARRIO":"SIERRA BELLA","ÁREA":26.0},"geometry":{"type":"Polygon","coordinates":[[[-70.64227,-33.46912],[-70.62646,-33.46739],[-70.62598,-33.46897],[-70.62572,-33.46925],[-70.62511,-33.46961],[-70.62671,-33.4715],[-70.63203,-33.47334],[-70.63863,-33.47582],[-70.64045,-33.47627],[-70.64197,-33.47637],[-70.64227,-33.46912]]]}},{"type":"Feature","properties":{"OBJECTID":21,"BARRIO":"VIEL","ÁREA":33.0},"geometry":{"type":"Polygon","coordinates":[[[-70.64913,-33.45958],[-70.64853,-33.46979],[-70.65464,-33.47046],[-70.6552,-33.47042],[-70.656,-33.47003],[-70.65625,-33.4701],[-70.65682,-33.46056],[-70.65654,-33.46055],[-70.65643,-33.46044],[-70.65634,-33.46051],[-70.65552,-33.46042],[-70.65543,-33.46032],[-70.65533,-33.46039],[-70.65441,-33.46029],[-70.65434,-33.4602],[-70.65425,-33.46026],[-70.65345,-33.46018],[-70.65338,-33.46008],[-70.6533,-33.46016],[-70.6526,-33.46009],[-70.65253,-33.45999],[-70.65245,-33.46005],[-70.65175,-33.45998],[-70.65168,-33.45988],[-70.65158,-33.45996],[-70.65079,-33.45986],[-70.65069,-33.45976],[-70.65058,-33.45984],[-70.64922,-33.45968],[-70.64913,-33.45958]]]}},{"type":"Feature","properties":{"OBJECTID":22,"BARRIO":"MATTA SUR","ÁREA":37.0},"geometry":{"type":"Polygon","coordinates":[[[-70.64897,-33.45964],[-70.64737,-33.4593],[-70.64727,-33.45917],[-70.64712,-33.45925],[-70.64628,-33.45907],[-70.6462,-33.45894],[-70.64605,-33.45903],[-70.64542,-33.45891],[-70.64532,-33.45877],[-70.64519,-33.45886],[-70.64336,-33.45847],[-70.64327,-33.45835],[-70.64314,-33.45841],[-70.64218,-33.4582],[-70.6421,-33.45808],[-70.64198,-33.45818],[-70.64092,-33.45795],[-70.64089,-33.45783],[-70.64076,-33.45792],[-70.63964,-33.45768],[-70.63953,-33.45754],[-70.63941,-33.45763],[-70.63706,-33.45712],[-70.63694,-33.45701],[-70.63681,-33.45707],[-70.63588,-33.45688],[-70.63582,-33.45675],[-70.6357,-33.45685],[-70.6344,-33.45658],[-70.63433,-33.45645],[-70.63422,-33.45652],[-70.63337,-33.45635],[-70.63327,-33.45622],[-70.6333,-33.45642],[-70.63198,-33.46134],[-70.63988,-33.4628],[-70.64889,-33.46372],[-70.64913,-33.45958],[-70.64897,-33.45964]]]}},{"type":"Feature","properties":{"OBJECTID":23,"BARRIO":"BOGOTÁ","ÁREA":25.0},"geometry":{"type":"Polygon","coordinates":[[[-70.64854,-33.46979],[-70.64889,-33.46372],[-70.63988,-33.4628],[-70.63198,-33.46134],[-70.63025,-33.46779],[-70.64854,-33.46979]]]}},{"type":"Feature","properties":{"OBJECTID":24,"BARRIO":"SANTA ELENA","ÁREA":36.0},"geometry":{"type":"Polygon","coordinates":[[[-70.62984,-33.45566],[-70.62646,-33.46739],[-70.63025,-33.46779],[-70.6333,-33.45642],[-70.63327,-33.45622],[-70.63314,-33.45629],[-70.63271,-33.45622],[-70.63218,-33.45609],[-70.63213,-33.45599],[-70.63203,-33.45606],[-70.63137,-33.45592],[-70.63129,-33.4558],[-70.63116,-33.45588],[-70.62992,-33.45562],[-70.62984,-33.45566]]]}},{"type":"Feature","properties":{"OBJECTID":25,"BARRIO":"SANTA ANA","ÁREA":33.0},"geometry":{"type":"Polygon","coordinates":[[[-70.66009,-33.43943],[-70.66114,-33.43233],[-70.66129,-33.43207],[-70.66134,-33.43171],[-70.66184,-33.43154],[-70.66203,-33.43125],[-70.6619,-33.43092],[-70.66159,-33.43078],[-70.66217,-33.42963],[-70.66293,-33.42889],[-70.66199,-33.42904],[-70.66058,-33.42959],[-70.66054,-33.4295],[-70.66041,-33.42975],[-70.65967,-33.43006],[-70.65755,-33.43055],[-70.65754,-33.43189],[-70.65734,-33.43453],[-70.65659,-33.4402],[-70.65566,-33.44461],[-70.65543,-33.44528],[-70.6606,-33.44652],[-70.661,-33.44421],[-70.66042,-33.44178],[-70.6601,-33.43992],[-70.66009,-33.43943]]]}},{"type":"Feature","properties":{"OBJECTID":26,"BARRIO":"SANTA LUCÍA FORESTAL","ÁREA":19.0},"geometry":{"type":"Polygon","coordinates":[[[-70.6486,-33.4326],[-70.63538,-33.4357],[-70.63539,-33.43657],[-70.63517,-33.43709],[-70.63527,-33.43714],[-70.63523,-33.4373],[-70.6364,-33.43762],[-70.63653,-33.43756],[-70.63653,-33.43765],[-70.63797,-33.43848],[-70.63808,-33.43846],[-70.63807,-33.43854],[-70.64042,-33.44021],[-70.64302,-33.44192],[-70.64421,-33.44237],[-70.64621,-33.44293],[-70.64699,-33.43839],[-70.64757,-33.43432],[-70.64789,-33.43378],[-70.64773,-33.43355],[-70.64881,-33.43326],[-70.64869,-33.43312],[-70.64855,-33.4327],[-70.6486,-33.4326]]]}},{"type":"Feature","properties":{"OBJECTID":27,"BARRIO":"CENTRO HISTÓRICO","ÁREA":37.0},"geometry":{"type":"Polygon","coordinates":[[[-70.65755,-33.43055],[-70.6486,-33.4326],[-70.64855,-33.4327],[-70.64869,-33.43312],[-70.64881,-33.43326],[-70.64773,-33.43355],[-70.64789,-33.43378],[-70.64757,-33.43432],[-70.64699,-33.43839],[-70.64623,-33.44289],[-70.64805,-33.44328],[-70.65543,-33.44528],[-70.65566,-33.44461],[-70.65659,-33.4402],[-70.65734,-33.43453],[-70.65754,-33.43189],[-70.65755,-33.43055]]]}},{"type":"Feature","properties":{"OBJECTID":28,"BARRIO":"PARQUE O'HIGGINS","ÁREA":8.0},"geometry":{"type":"Polygon","coordinates":[[[-70.66345,-33.47046],[-70.66392,-33.45864],[-70.66384,-33.45854],[-70.66072,-33.45838],[-70.65668,-33.45803],[-70.65682,-33.46056],[-70.65626,-33.47],[-70.65946,-33.47013],[-70.65965,-33.47021],[-70.65986,-33.47016],[-70.66085,-33.47021],[-70.66095,-33.47026],[-70.66209,-33.47029],[-70.6622,-33.47036],[-70.66306,-33.47034],[-70.66345,-33.47046]]]}}]}