{"type":"FeatureCollection","features":[{"type":"Feature","properties":{"OBJECTID":2,"UNIDAD":2.0,"SECTORES_T":"NORPONIENTE","TERRITORIO":"NORPONIENTE"},"geometry":{"type":"Polygon","coordinates":[[[-70.67031,-33.42648],[-70.6631,-33.42898],[-70.66255,-33.42909],[-70.66122,-33.4292],[-70.6605,-33.42954],[-70.66096,-33.43081],[-70.66096,-33.43125],[-70.66,-33.43741],[-70.65993,-33.43803],[-70.66002,-33.4381],[-70.66001,-33.43841],[-70.65989,-33.43847],[-70.6597,-33.44006],[-70.66063,-33.44425],[-70.66058,-33.44593],[-70.66472,-33.44689],[-70.67786,-33.45043],[-70.67789,-33.4506],[-70.67898,-33.45084],[-70.67956,-33.44387],[-70.69232,-33.44453],[-70.69189,-33.43926],[-70.69148,-33.43918],[-70.68324,-33.43864],[-70.68346,-33.43645],[-70.68089,-33.43601],[-70.68078,-33.43728],[-70.68132,-33.43733],[-70.68131,-33.43746],[-70.6819,-33.43745],[-70.68187,-33.43794],[-70.68176,-33.43794],[-70.68172,-33.43855],[-70.68006,-33.43843],[-70.68074,-33.42985],[-70.68071,-33.42938],[-70.68048,-33.42869],[-70.67994,-33.42795],[-70.67936,-33.42746],[-70.67821,-33.42697],[-70.67778,-33.42688],[-70.67703,-33.42682],[-70.67637,-33.42685],[-70.67551,-33.42707],[-70.67182,-33.42828],[-70.67157,-33.42569],[-70.67104,-33.42608],[-70.67031,-33.42648]]]}},{"type":"Feature","properties":{"OBJECTID":3,"UNIDAD":3.0,"SECTORES_T":"CENTRO ORIENTE","TERRITORIO":"CENTRO ORIENTE"},"geometry":{"type":"Polygon","coordinates":[[[-70.62983,-33.45548],[-70.64913,-33.45957],[-70.65604,-33.4604],[-70.65664,-33.46063],[-70.6571,-33.46068],[-70.65711,-33.46026],[-70.65673,-33.45811],[-70.65688,-33.45644],[-70.65702,-33.45609],[-70.65797,-33.45478],[-70.65883,-33.45266],[-70.65966,-33.44924],[-70.6603,-33.44715],[-70.66058,-33.44593],[-70.65403,-33.4444],[-70.6519,-33.44393],[-70.6511,-33.44383],[-70.64528,-33.44252],[-70.64404,-33.44218],[-70.64276,-33.44162],[-70.6375,-33.43796],[-70.63645,-33.43744],[-70.63519,-33.43712],[-70.63407,-33.44126],[-70.62983,-33.45548]]]}},{"type":"Feature","properties":{"OBJECTID":4,"UNIDAD":4.0,"SECTORES_T":"CENTRO PONIENTE","TERRITORIO":"CENTRO PONIENTE"},"geometry":{"type":"Polygon","coordinates":[[[-70.66058,-33.44593],[-70.6603,-33.44715],[-70.65966,-33.44924],[-70.65897,-33.45221],[-70.65797,-33.45478],[-70.65702,-33.45609],[-70.65688,-33.45644],[-70.65673,-33.45811],[-70.66495,-33.45863],[-70.66495,-33.45711],[-70.67211,-33.45835],[-70.67616,-33.45857],[-70.67835,-33.45813],[-70.67786,-33.45043],[-70.66472,-33.44689],[-70.66058,-33.44593]]]}},{"type":"Feature","properties":{"OBJECTID":6,"UNIDAD":6.0,"SECTORES_T":"SURPONIENTE","TERRITORIO":"SURPONIENTE"},"geometry":{"type":"Polygon","coordinates":[[[-70.66495,-33.45711],[-70.66495,-33.45863],[-70.65673,-33.45811],[-70.65711,-33.46026],[-70.6571,-33.46068],[-70.6566,-33.46406],[-70.65633,-33.47004],[-70.65617,-33.47004],[-70.65612,-33.47097],[-70.65591,-33.47158],[-70.65475,-33.47328],[-70.65443,-33.47405],[-70.65439,-33.47528],[-70.65488,-33.47654],[-70.66177,-33.47591],[-70.67157,-33.47613],[-70.67156,-33.47853],[-70.68085,-33.47842],[-70.68072,-33.47646],[-70.67868,-33.47645],[-70.67577,-33.47666],[-70.6736,-33.47642],[-70.67239,-33.47648],[-70.67166,-33.47618],[-70.67165,-33.47579],[-70.67231,-33.47581],[-70.67261,-33.4755],[-70.6729,-33.47489],[-70.67294,-33.47063],[-70.67986,-33.4707],[-70.67994,-33.47063],[-70.67995,-33.47049],[-70.6791,-33.46922],[-70.67835,-33.45813],[-70.67616,-33.45857],[-70.67211,-33.45835],[-70.66495,-33.45711]]]}},{"type":"Feature","properties":{"OBJECTID":5,"UNIDAD":5.0,"SECTORES_T":"SURORIENTE","TERRITORIO":"SURORIENTE"},"geometry":{"type":"Polygon","coordinates":[[[-70.62983,-33.45548],[-70.62599,-33.46881],[-70.62567,-33.46921],[-70.62507,-33.46957],[-70.62581,-33.47076],[-70.6267,-33.47158],[-70.62734,-33.47191],[-70.63855,-33.47591],[-70.64033,-33.47636],[-70.6482,-33.47677],[-70.65488,-33.47654],[-70.65439,-33.47528],[-70.65437,-33.4744],[-70.65456,-33.47364],[-70.65475,-33.47328],[-70.65591,-33.47158],[-70.65612,-33.47097],[-70.65617,-33.47004],[-70.65633,-33.47004],[-70.6566,-33.46406],[-70.6571,-33.46068],[-70.65664,-33.46063],[-70.65604,-33.4604],[-70.64913,-33.45957],[-70.63954,-33.45752],[-70.63586,-33.45681],[-70.62983,-33.45548]]]}},{"type":"Feature","properties":{"OBJECTID":1,"UNIDAD":1.0,"SECTORES_T":"NORORIENTE","TERRITORIO":"NORORIENTE"},"geometry":{"type":"Polygon","coordinates":[[[-70.65403,-33.4444],[-70.66058,-33.44593],[-70.66063,-33.44425],[-70.6597,-33.44006],[-70.65989,-33.43847],[-70.66001,-33.43841],[-70.66002,-33.4381],[-70.65993,-33.43803],[-70.66,-33.43741],[-70.66096,-33.43125],[-70.66096,-33.43081],[-70.6605,-33.42954],[-70.6594,-33.43009],[-70.63539,-33.43569],[-70.63536,-33.43651],[-70.63519,-33.43712],[-70.63645,-33.43744],[-70.6375,-33.43796],[-70.64244,-33.4414],[-70.6435,-33.44197],[-70.64528,-33.44252],[-70.6511,-33.44383],[-70.6519,-33.44393],[-70.65403,-33.4444]]]}}]}