{"type":"FeatureCollection","features":[{"type":"Feature","properties":{"BARRIO":"BALMACEDA"},"geometry":{"type":"Polygon","coordinates":[[[-70.668486,-33.427031],[-70.669543,-33.429179],[-70.669211,-33.432123],[-70.680591,-33.433057],[-70.680723,-33.429786],[-70.680138,-33.42819],[-70.67766,-33.426693],[-70.676893,-33.426597],[-70.671775,-33.428325],[-70.671295,-33.426084],[-70.668486,-33.427031]]]}},{"type":"Feature","properties":{"BARRIO":"BOGOTÁ"},"geometry":{"type":"Polygon","coordinates":[[[-70.648888,-33.463725],[-70.63988,-33.462798],[-70.631976,-33.461345],[-70.630253,-33.467786],[-70.648541,-33.46979],[-70.648888,-33.463725]]]}},{"type":"Feature","properties":{"BARRIO":"BRASIL"},"geometry":{"type":"Polygon","coordinates":[[[-70.668664,-33.43802],[-70.660369,-33.437194],[-70.661,-33.444209],[-70.660661,-33.445945],[-70.667421,-33.447655],[-70.668664,-33.43802]]]}},{"type":"Feature","properties":{"BARRIO":"CASCO HISTÓRICO"},"geometry":{"type":"Polygon","coordinates":[[[-70.648597,-33.432601],[-70.647573,-33.434316],[-70.646232,-33.442888],[-70.655434,-33.445279],[-70.65734,-33.434528],[-70.657546,-33.430554],[-70.648597,-33.432601]]]}},{"type":"Feature","properties":{"BARRIO":"CLUB HIPICO"},"geometry":{"type":"Polygon","coordinates":[[[-70.667711,-33.470588],[-70.671703,-33.466485],[-70.671521,-33.463514],[-70.672139,-33.45839],[-70.664939,-33.457125],[-70.663446,-33.470456],[-70.667711,-33.470588]]]}},{"type":"Feature","properties":{"BARRIO":"DIEZ DE JULIO"},"geometry":{"type":"Polygon","coordinates":[[[-70.643977,-33.453298],[-70.634571,-33.451581],[-70.630976,-33.451913],[-70.629864,-33.455604],[-70.643154,-33.458401],[-70.643977,-33.453298]]]}},{"type":"Feature","properties":{"BARRIO":"EJERCITO"},"geometry":{"type":"Polygon","coordinates":[[[-70.663928,-33.458469],[-70.664798,-33.447426],[-70.660661,-33.445945],[-70.658121,-33.454371],[-70.656768,-33.458041],[-70.663928,-33.458469]]]}},{"type":"Feature","properties":{"BARRIO":"FRANKLIN"},"geometry":{"type":"Polygon","coordinates":[[[-70.642268,-33.469124],[-70.641971,-33.476375],[-70.648295,-33.476705],[-70.64849599800513,-33.469785068679045],[-70.6484760091705,-33.469782878301494],[-70.642268,-33.469124]]]}},{"type":"Feature","properties":{"BARRIO":"HUEMUL"},"geometry":{"type":"Polygon","coordinates":[[[-70.656256,-33.47],[-70.648541,-33.46979],[-70.648295,-33.47671],[-70.654667,-33.476346],[-70.654298,-33.47421],[-70.654793,-33.47296],[-70.656256,-33.47]]]}},{"type":"Feature","properties":{"BARRIO":"MATTA NORTE"},"geometry":{"type":"Polygon","coordinates":[[[-70.65687791875241,-33.45804757056229],[-70.656768,-33.458041],[-70.6568859769793,-33.45772098853361],[-70.656924,-33.45618],[-70.658035,-33.454555],[-70.650037,-33.454134],[-70.650572,-33.450509],[-70.644578,-33.449621],[-70.643277,-33.458139],[-70.649223,-33.45968],[-70.656816,-33.460557],[-70.65687791875241,-33.45804757056229]]]}},{"type":"Feature","properties":{"BARRIO":"MATTA SUR"},"geometry":{"type":"Polygon","coordinates":[[[-70.64316729984039,-33.45831853452549],[-70.643154,-33.458401],[-70.63325072205771,-33.456316766109516],[-70.631976,-33.461345],[-70.648888,-33.463725],[-70.64912187581179,-33.459653792066256],[-70.64758000216777,-33.45925419111008],[-70.64316729984039,-33.45831853452549]]]}},{"type":"Feature","properties":{"BARRIO":"MEIGGS"},"geometry":{"type":"Polygon","coordinates":[[[-70.672139,-33.45839],[-70.676146,-33.458642],[-70.678356,-33.458221],[-70.677892,-33.450463],[-70.672973,-33.449126],[-70.672576,-33.449402],[-70.672139,-33.45839]]]}},{"type":"Feature","properties":{"BARRIO":"PARQUE ALMAGRO"},"geometry":{"type":"Polygon","coordinates":[[[-70.644578,-33.449621],[-70.650572,-33.450509],[-70.650037,-33.454134],[-70.658035,-33.454555],[-70.6585712987145,-33.45287721379195],[-70.66049639334223,-33.446491053424594],[-70.6554434478896,-33.44522570815265],[-70.655434,-33.445279],[-70.64952393665806,-33.44374335976412],[-70.646228,-33.442918],[-70.644578,-33.449621]]]}},{"type":"Feature","properties":{"BARRIO":"PARQUE O'HIGGINS"},"geometry":{"type":"Polygon","coordinates":[[[-70.663923,-33.458636],[-70.65687788776775,-33.45804882630216],[-70.656816,-33.460557],[-70.65658831160354,-33.46053070173532],[-70.656256,-33.47],[-70.66344602114951,-33.47045581115587],[-70.66345067338185,-33.47041427136402],[-70.663923,-33.458636]]]}},{"type":"Feature","properties":{"BARRIO":"REPUBLICA"},"geometry":{"type":"Polygon","coordinates":[[[-70.672576,-33.449402],[-70.672973,-33.449126],[-70.66742426153841,-33.44762971848542],[-70.667421,-33.447655],[-70.66466509179652,-33.446957869374565],[-70.66463667033955,-33.44736824577541],[-70.664798,-33.447426],[-70.663928,-33.458469],[-70.66386811283145,-33.45846542015249],[-70.663859,-33.458597],[-70.66477681560566,-33.458573144782974],[-70.664939,-33.457125],[-70.67209830336793,-33.45838284982784],[-70.672131,-33.458382],[-70.672576,-33.449402]]]}},{"type":"Feature","properties":{"BARRIO":"RONDIZZONI"},"geometry":{"type":"Polygon","coordinates":[[[-70.664866,-33.473625],[-70.659548,-33.473432],[-70.659635,-33.470318],[-70.656256,-33.47],[-70.654793,-33.47296],[-70.65439818411697,-33.47478992757144],[-70.65465601469342,-33.47628241025777],[-70.65473,-33.476498],[-70.664776,-33.475926],[-70.664866,-33.473625]]]}},{"type":"Feature","properties":{"BARRIO":"SAN BORJA"},"geometry":{"type":"Polygon","coordinates":[[[-70.646214,-33.442934],[-70.638085,-33.438463],[-70.635228,-33.4373],[-70.63394,-33.441903],[-70.636537,-33.445166],[-70.644848,-33.448054],[-70.646214,-33.442934]]]}},{"type":"Feature","properties":{"BARRIO":"SAN VICENTE"},"geometry":{"type":"Polygon","coordinates":[[[-70.671521,-33.463514],[-70.671703,-33.466485],[-70.67165787756117,-33.46653137709581],[-70.678965,-33.46667],[-70.678356,-33.458221],[-70.676146,-33.458642],[-70.6721500822577,-33.45839069696255],[-70.672139,-33.458391],[-70.671521,-33.463514]]]}},{"type":"Feature","properties":{"BARRIO":"SANTA ANA"},"geometry":{"type":"Polygon","coordinates":[[[-70.66041154499881,-33.43766698441624],[-70.660369,-33.437194],[-70.66047476451541,-33.43720453182516],[-70.661141,-33.432331],[-70.662175,-33.429632],[-70.657546,-33.430554],[-70.65734,-33.434528],[-70.6554434478896,-33.44522570815265],[-70.66049639334223,-33.446491053424594],[-70.66058070291824,-33.44621137134292],[-70.660103,-33.439924],[-70.66041154499881,-33.43766698441624]]]}},{"type":"Feature","properties":{"BARRIO":"SANTA ELENA"},"geometry":{"type":"MultiPolygon","coordinates":[[[[-70.62646,-33.467387],[-70.630253,-33.467786],[-70.631976,-33.461345],[-70.6332285837378,-33.45640409232291],[-70.629841,-33.455655],[-70.62646,-33.467387]]],[[[-70.63197723965294,-33.46134517445447],[-70.631976,-33.461345],[-70.63197722601983,-33.46134522538042],[-70.63197723965294,-33.46134517445447]]]]}},{"type":"Feature","properties":{"BARRIO":"SANTA ISABEL"},"geometry":{"type":"Polygon","coordinates":[[[-70.64446675960976,-33.45034932101774],[-70.644578,-33.449621],[-70.64460791448634,-33.44949947466548],[-70.644848,-33.448054],[-70.636537,-33.445166],[-70.63394,-33.441903],[-70.630976,-33.451913],[-70.634571,-33.451581],[-70.643977,-33.453298],[-70.64446675960976,-33.45034932101774]]]}},{"type":"Feature","properties":{"BARRIO":"SANTA LUCIA - FORESTAL"},"geometry":{"type":"Polygon","coordinates":[[[-70.635377,-33.435695],[-70.635228,-33.4373],[-70.638085,-33.438463],[-70.646214,-33.442934],[-70.647573,-33.434316],[-70.648597,-33.432601],[-70.635377,-33.435695]]]}},{"type":"Feature","properties":{"BARRIO":"SIERRA BELLA"},"geometry":{"type":"Polygon","coordinates":[[[-70.62646,-33.467387],[-70.625108,-33.46961],[-70.626711,-33.471502],[-70.640448,-33.476267],[-70.641971,-33.476375],[-70.642268,-33.469124],[-70.62646,-33.467387]]]}},{"type":"Feature","properties":{"BARRIO":"VIEL"},"geometry":{"type":"MultiPolygon","coordinates":[[[[-70.6514488610426,-33.469869151110686],[-70.656256,-33.47],[-70.65658831160354,-33.46053070173532],[-70.649223,-33.45968],[-70.64912189608302,-33.459653797319866],[-70.648546,-33.469729],[-70.6514488610426,-33.469869151110686]]],[[[-70.65625697548825,-33.47000006184104],[-70.656256,-33.47],[-70.65625697372428,-33.47000009163786],[-70.65625697548825,-33.47000006184104]]]]}},{"type":"Feature","properties":{"BARRIO":"YUNGAY"},"geometry":{"type":"Polygon","coordinates":[[[-70.691866,-33.444479],[-70.691627,-33.439246],[-70.68012,-33.438443],[-70.680591,-33.433057],[-70.669211,-33.432123],[-70.6685402722823,-33.438007679434016],[-70.668664,-33.43802],[-70.66758995283999,-33.44634537762403],[-70.66744298979889,-33.44763476877751],[-70.67293811012495,-33.44911659154158],[-70.679021,-33.450727],[-70.679604,-33.443846],[-70.691866,-33.444479]]]}}]}