{"type":"FeatureCollection","features":[{"type":"Feature","properties":{"TERRITORIO":"NOR ORIENTE"},"geometry":{"type":"Polygon","coordinates":[[[-70.635376433,-33.435695336],[-70.635211788,-33.437061428],[-70.636395694,-33.437362702],[-70.637814022,-33.438090962],[-70.643127437,-33.441741337],[-70.646664345,-33.442743641],[-70.660599747,-33.445867519],[-70.660496217,-33.443094631],[-70.659842473,-33.440717234],[-70.659707286,-33.439460001],[-70.660977663,-33.430753389],[-70.660644186,-33.42982867],[-70.635376433,-33.435695336]]]}},{"type":"Feature","properties":{"TERRITORIO":"NOR PONIENTE"},"geometry":{"type":"Polygon","coordinates":[[[-70.671590123,-33.425634399],[-70.670723159,-33.426217058],[-70.664621338,-33.4284078],[-70.662564735,-33.429033699],[-70.661127338,-33.42918248],[-70.660519495,-33.4294829],[-70.660977663,-33.430753389],[-70.659707286,-33.439460001],[-70.659842473,-33.440717234],[-70.660499456,-33.443086628],[-70.660599747,-33.445867519],[-70.664481099,-33.446768487],[-70.678996843,-33.450771996],[-70.679578722,-33.443800225],[-70.692030578,-33.444484881],[-70.69175029,-33.439402985],[-70.692183842,-33.438196653],[-70.68024964,-33.435845852],[-70.680743821,-33.429570821],[-70.680622846,-33.428923759],[-70.680200217,-33.428186566],[-70.67927241,-33.427350869],[-70.678192963,-33.426906492],[-70.676914196,-33.426756504],[-70.675161357,-33.427130765],[-70.671840849,-33.428218612],[-70.671590123,-33.425634399]]]}},{"type":"Feature","properties":{"TERRITORIO":"CENTRO ORIENTE"},"geometry":{"type":"Polygon","coordinates":[[[-70.660579801,-33.445855968],[-70.643852538,-33.442033447],[-70.642563978,-33.441417038],[-70.637712505,-33.438023975],[-70.636395694,-33.437362702],[-70.635211788,-33.437061428],[-70.629817625,-33.455476202],[-70.649144157,-33.45951046],[-70.656063366,-33.460338726],[-70.657114278,-33.460619469],[-70.656749136,-33.457877884],[-70.65688179,-33.456368202],[-70.658368761,-33.453790855],[-70.660579801,-33.445855968]]]}},{"type":"Feature","properties":{"TERRITORIO":"CENTRO PONIENTE"},"geometry":{"type":"Polygon","coordinates":[[[-70.65688179,-33.456368202],[-70.664875651,-33.457038616],[-70.672117006,-33.458276726],[-70.676157009,-33.45849316],[-70.678347143,-33.45806246],[-70.677890449,-33.450530284],[-70.677775433,-33.450319974],[-70.660579801,-33.445855968],[-70.658368761,-33.453790855],[-70.65688179,-33.456368202]]]}},{"type":"Feature","properties":{"TERRITORIO":"SUR ORIENTE"},"geometry":{"type":"Polygon","coordinates":[[[-70.654922,-33.476501644],[-70.654416848,-33.47505215],[-70.654445027,-33.474432187],[-70.6547871,-33.473506611],[-70.656260393,-33.4711258],[-70.656562213,-33.46509635],[-70.657114278,-33.460619469],[-70.656063366,-33.460338726],[-70.649144157,-33.45951046],[-70.629817625,-33.455476202],[-70.626203402,-33.468456213],[-70.62585263,-33.469020745],[-70.625085349,-33.469550745],[-70.625977298,-33.470950299],[-70.627338717,-33.47180262],[-70.6292662,-33.472593892],[-70.635076869,-33.474718006],[-70.640197678,-33.476286133],[-70.648211342,-33.476539674],[-70.648220688,-33.476709204],[-70.654922,-33.476501644]]]}},{"type":"Feature","properties":{"TERRITORIO":"SUR PONIENTE"},"geometry":{"type":"Polygon","coordinates":[[[-70.678347143,-33.45806246],[-70.676157009,-33.45849316],[-70.672117006,-33.458276726],[-70.664875651,-33.457038616],[-70.65688179,-33.456368202],[-70.656749136,-33.457877884],[-70.657114278,-33.460619469],[-70.656598194,-33.464804565],[-70.656260393,-33.4711258],[-70.6547871,-33.473506611],[-70.654445027,-33.474432187],[-70.654416848,-33.47505215],[-70.654922,-33.476501644],[-70.660954046,-33.475736503],[-70.671565833,-33.475847686],[-70.671575596,-33.478495438],[-70.680667889,-33.478361305],[-70.680615485,-33.477024903],[-70.671695944,-33.476868306],[-70.671712729,-33.475901268],[-70.672477038,-33.475586192],[-70.67284075,-33.475026657],[-70.672929051,-33.470640608],[-70.680112647,-33.470659793],[-70.679746789,-33.470408742],[-70.679145666,-33.469478185],[-70.678347143,-33.45806246]]]}}]}